[{"OBJECT_NAME":"FORMOSAT-8A","OBJECT_ID":"2025-276A","EPOCH":"2026-03-09T17:53:55.297824","MEAN_MOTION":15.0113297,"ECCENTRICITY":0.00020333,"INCLINATION":97.6538,"RA_OF_ASC_NODE":144.453,"ARG_OF_PERICENTER":294.9162,"MEAN_ANOMALY":65.185,"EPHEMERIS_TYPE":0,"CLASSIFICATION_TYPE":"U","NORAD_CAT_ID":66666,"ELEMENT_SET_NO":999,"REV_AT_EPOCH":1514,"BSTAR":0.00021775611,"MEAN_MOTION_DOT":2.73e-5,"MEAN_MOTION_DDOT":0},{"OBJECT_NAME":"OKEAN-3","OBJECT_ID":"1991-039A","EPOCH":"2026-03-09T19:29:17.530944","MEAN_MOTION":15.0480588,"ECCENTRICITY":0.00139411,"INCLINATION":82.519,"RA_OF_ASC_NODE":336.7249,"ARG_OF_PERICENTER":337.9296,"MEAN_ANOMALY":22.1329,"EPHEMERIS_TYPE":0,"CLASSIFICATION_TYPE":"U","NORAD_CAT_ID":21397,"ELEMENT_SET_NO":999,"REV_AT_EPOCH":86505,"BSTAR":0.00031884915,"MEAN_MOTION_DOT":4.536e-5,"MEAN_MOTION_DDOT":0}]
